0 DMSP 5D-2 F11 DEB
1 28331U 91082AU  13282.29771312  .00001844  00000-0  62912-3 0  7005
2 28331 098.4215 309.0276 0048317 086.7560 273.9191 14.36899944492969
0 DMSP 5D-2 F11 DEB
1 28331U 91082AU  13288.91289597  .00002090  00000-0  71047-3 0  7035
2 28331 098.4229 315.5033 0049110 069.0564 291.5982 14.36931158493911
0 DMSP 5D-2 F11 DEB
1 28331U 91082AU  13291.28039792  .00002215  00000-0  75177-3 0  7047
2 28331 098.4220 317.8191 0049149 061.1682 299.4859 14.36944424494256
0 DMSP 5D-2 F11 DEB
1 28331U 91082AU  13292.88191751  .00002330  00000-0  79043-3 0  7053
2 28331 098.4197 319.3804 0048432 056.9563 303.6405 14.36954225494481
0 DMSP 5D-2 F11 DEB
1 28331U 91082AU  13294.90121933  .00002478  00000-0  83976-3 0  7067
2 28331 098.4172 321.3515 0047662 051.5751 308.9998 14.36966980494778
